PHISAT 2                
1 60470U 24149C   26068.78834181  .00008925  00000+0  31421-3 0  9996
2 60470  97.3806 148.6498 0001175 168.6230 191.5037 15.29548631 86792
STARLINK-35785          
1 67176U 25303P   26067.70032128  .00037067  00000+0  13493-2 0  9998
2 67176  42.9980 316.3187 0001646 260.8630  99.2036 15.27590097 12582
